start=new Date('2021-09-23T00:00:00.000Z').valueOf();
sats=[{"TLE_LINE1":"1 46555U 20070Z   21265.67597080  .00270062  00000-0  58631-2 0  9994","SITE":"AFETR","REF_FRAME":"TEME","ARG_OF_PERICENTER":"167.5868","INCLINATION":"53.0508","CENTER_NAME":"EARTH","REV_AT_EPOCH":"5458","MEAN_MOTION_DOT":"0.00270062","MEAN_ELEMENT_THEORY":"SGP4","OBJECT_NAME":"STARLINK-1674","TIME_SYSTEM":"UTC","MEAN_MOTION_DDOT":"0.0000000000000","OBJECT_TYPE":"PAYLOAD","OBJECT_ID":"2020-070Z","NORAD_CAT_ID":"46555","TLE_LINE2":"2 46555  53.0508 246.0067 0001143 167.5868 192.5165 15.42844667 54581","FILE":"3123736","RA_OF_ASC_NODE":"246.0067","LAUNCH_DATE":"2020-10-06","CLASSIFICATION_TYPE":"U","BSTAR":"0.00586310000000","PERIAPSIS":"436.941","EPOCH":"2021-09-22T16:13:23.877120","COUNTRY_CODE":"US","DECAY_DATE":null,"MEAN_MOTION":"15.42844667","SEMIMAJOR_AXIS":"6815.855","ELEMENT_SET_NO":"999","GP_ID":"185269240","ECCENTRICITY":"0.00011430","PERIOD":"93.334","EPHEMERIS_TYPE":"0","MEAN_ANOMALY":"192.5165","APOAPSIS":"438.500","RCS_SIZE":"LARGE"},{"OBJECT_ID":"2020-070AA","TLE_LINE2":"2 46556  53.0547 290.4964 0000780  75.7418 284.3657 15.06394371 53948","NORAD_CAT_ID":"46556","TIME_SYSTEM":"UTC","MEAN_MOTION_DDOT":"0.0000000000000","OBJECT_TYPE":"PAYLOAD","MEAN_MOTION_DOT":"0.00000882","REV_AT_EPOCH":"5394","CENTER_NAME":"EARTH","OBJECT_NAME":"STARLINK-1676","MEAN_ELEMENT_THEORY":"SGP4","SITE":"AFETR","REF_FRAME":"TEME","TLE_LINE1":"1 46556U 20070AA  21265.46542165  .00000882  00000-0  78101-4 0  9993","INCLINATION":"53.0547","ARG_OF_PERICENTER":"75.7418","PERIOD":"95.592","MEAN_ANOMALY":"284.3657","EPHEMERIS_TYPE":"0","APOAPSIS":"547.771","RCS_SIZE":"LARGE","SEMIMAJOR_AXIS":"6925.366","ELEMENT_SET_NO":"999","ECCENTRICITY":"0.00007800","GP_ID":"185238818","LAUNCH_DATE":"2020-10-06","BSTAR":"0.00007810100000","CLASSIFICATION_TYPE":"U","EPOCH":"2021-09-22T11:10:12.430560","PERIAPSIS":"546.691","COUNTRY_CODE":"US","DECAY_DATE":null,"MEAN_MOTION":"15.06394371","RA_OF_ASC_NODE":"290.4964","FILE":"3123417"},{"RA_OF_ASC_NODE":"275.5956","FILE":"3123417","DECAY_DATE":null,"COUNTRY_CODE":"US","MEAN_MOTION":"15.06398158","PERIAPSIS":"546.487","EPOCH":"2021-09-22T10:37:41.754432","CLASSIFICATION_TYPE":"U","BSTAR":"0.00002539800000","LAUNCH_DATE":"2020-10-06","GP_ID":"185239069","ECCENTRICITY":"0.00010570","ELEMENT_SET_NO":"999","SEMIMAJOR_AXIS":"6925.354","RCS_SIZE":"LARGE","APOAPSIS":"547.951","EPHEMERIS_TYPE":"0","MEAN_ANOMALY":"270.7192","PERIOD":"95.592","ARG_OF_PERICENTER":"89.3918","INCLINATION":"53.0539","TLE_LINE1":"1 46557U 20070AB  21265.44284438  .00000097  00000-0  25398-4 0  9996","SITE":"AFETR","REF_FRAME":"TEME","MEAN_ELEMENT_THEORY":"SGP4","OBJECT_NAME":"STARLINK-1679","CENTER_NAME":"EARTH","REV_AT_EPOCH":"5415","MEAN_MOTION_DOT":"0.00000097","OBJECT_TYPE":"PAYLOAD","MEAN_MOTION_DDOT":"0.0000000000000","TIME_SYSTEM":"UTC","TLE_LINE2":"2 46557  53.0539 275.5956 0001057  89.3918 270.7192 15.06398158 54153","NORAD_CAT_ID":"46557","OBJECT_ID":"2020-070AB"},{"MEAN_ANOMALY":"281.4725","EPHEMERIS_TYPE":"0","PERIOD":"95.593","APOAPSIS":"547.733","RCS_SIZE":"LARGE","SEMIMAJOR_AXIS":"6925.368","GP_ID":"185268513","ECCENTRICITY":"0.00007220","ELEMENT_SET_NO":"999","BSTAR":"0.00000551890000","CLASSIFICATION_TYPE":"U","LAUNCH_DATE":"2020-10-06","DECAY_DATE":null,"COUNTRY_CODE":"US","MEAN_MOTION":"15.06393773","EPOCH":"2021-09-22T17:10:28.312608","PERIAPSIS":"546.733","RA_OF_ASC_NODE":"274.3788","FILE":"3123736","OBJECT_ID":"2020-070AC","NORAD_CAT_ID":"46558","TLE_LINE2":"2 46558  53.0528 274.3788 0000722  78.6345 281.4725 15.06393773 54165","MEAN_MOTION_DDOT":"0.0000000000000","TIME_SYSTEM":"UTC","OBJECT_TYPE":"PAYLOAD","MEAN_MOTION_DOT":"-0.00000199","REV_AT_EPOCH":"5416","CENTER_NAME":"EARTH","OBJECT_NAME":"STARLINK-1680","MEAN_ELEMENT_THEORY":"SGP4","SITE":"AFETR","REF_FRAME":"TEME","TLE_LINE1":"1 46558U 20070AC  21265.71560547 -.00000199  00000-0  55189-5 0  9991","INCLINATION":"53.0528","ARG_OF_PERICENTER":"78.6345"},{"ARG_OF_PERICENTER":"49.7156","INCLINATION":"53.0537","TLE_LINE1":"1 46559U 20070AD  21265.70407875  .00001656  00000-0  12998-3 0  9992","SITE":"AFETR","REF_FRAME":"TEME","MEAN_ELEMENT_THEORY":"SGP4","OBJECT_NAME":"STARLINK-1681","CENTER_NAME":"EARTH","MEAN_MOTION_DOT":"0.00001656","REV_AT_EPOCH":"5439","OBJECT_TYPE":"PAYLOAD","MEAN_MOTION_DDOT":"0.0000000000000","TIME_SYSTEM":"UTC","TLE_LINE2":"2 46559  53.0537 259.4205 0001087  49.7156 310.3928 15.06406348 54393","NORAD_CAT_ID":"46559","OBJECT_ID":"2020-070AD","FILE":"3123736","RA_OF_ASC_NODE":"259.4205","COUNTRY_CODE":"US","DECAY_DATE":null,"MEAN_MOTION":"15.06406348","PERIAPSIS":"546.441","EPOCH":"2021-09-22T16:53:52.404000","CLASSIFICATION_TYPE":"U","BSTAR":"0.00012998000000","LAUNCH_DATE":"2020-10-06","GP_ID":"185268741","ECCENTRICITY":"0.00010870","ELEMENT_SET_NO":"999","SEMIMAJOR_AXIS":"6925.329","APOAPSIS":"547.947","RCS_SIZE":"LARGE","EPHEMERIS_TYPE":"0","MEAN_ANOMALY":"310.3928","PERIOD":"95.592"},{"EPOCH":"2021-09-22T17:31:41.609280","PERIAPSIS":"546.695","MEAN_MOTION":"15.06403715","DECAY_DATE":null,"COUNTRY_CODE":"US","LAUNCH_DATE":"2020-10-06","BSTAR":"0.00011560000000","CLASSIFICATION_TYPE":"U","FILE":"3123736","RA_OF_ASC_NODE":"274.3109","RCS_SIZE":"LARGE","APOAPSIS":"547.709","PERIOD":"95.592","MEAN_ANOMALY":"281.8285","EPHEMERIS_TYPE":"0","ELEMENT_SET_NO":"999","GP_ID":"185268012","ECCENTRICITY":"0.00007320","SEMIMAJOR_AXIS":"6925.337","OBJECT_NAME":"STARLINK-1706","MEAN_ELEMENT_THEORY":"SGP4","MEAN_MOTION_DOT":"0.00001441","REV_AT_EPOCH":"5419","CENTER_NAME":"EARTH","INCLINATION":"53.0547","ARG_OF_PERICENTER":"78.2786","REF_FRAME":"TEME","SITE":"AFETR","TLE_LINE1":"1 46560U 20070AE  21265.73034270  .00001441  00000-0  11560-3 0  9998","NORAD_CAT_ID":"46560","TLE_LINE2":"2 46560  53.0547 274.3109 0000732  78.2786 281.8285 15.06403715 54198","OBJECT_ID":"2020-070AE","OBJECT_TYPE":"PAYLOAD","TIME_SYSTEM":"UTC","MEAN_MOTION_DDOT":"0.0000000000000"},{"OBJECT_TYPE":"PAYLOAD","TIME_SYSTEM":"UTC","MEAN_MOTION_DDOT":"0.0000000000000","TLE_LINE2":"2 46561  53.0544 275.7317 0000565  46.8515 313.2521 15.06407888 54140","NORAD_CAT_ID":"46561","OBJECT_ID":"2020-070AF","ARG_OF_PERICENTER":"46.8515","INCLINATION":"53.0544","TLE_LINE1":"1 46561U 20070AF  21265.41334995  .00001249  00000-0  10269-3 0  9992","SITE":"AFETR","REF_FRAME":"TEME","MEAN_ELEMENT_THEORY":"SGP4","OBJECT_NAME":"STARLINK-1709","CENTER_NAME":"EARTH","MEAN_MOTION_DOT":"0.00001249","REV_AT_EPOCH":"5414","ELEMENT_SET_NO":"999","GP_ID":"185239569","ECCENTRICITY":"0.00005650","SEMIMAJOR_AXIS":"6925.324","RCS_SIZE":"LARGE","APOAPSIS":"547.581","PERIOD":"95.592","EPHEMERIS_TYPE":"0","MEAN_ANOMALY":"313.2521","RA_OF_ASC_NODE":"275.7317","FILE":"3123417","PERIAPSIS":"546.798","EPOCH":"2021-09-22T09:55:13.435680","COUNTRY_CODE":"US","DECAY_DATE":null,"MEAN_MOTION":"15.06407888","LAUNCH_DATE":"2020-10-06","CLASSIFICATION_TYPE":"U","BSTAR":"0.00010269000000"},{"OBJECT_ID":"2020-070AG","TLE_LINE2":"2 46562  53.0542 270.7181 0000840  58.9609 301.1462 15.06408878 54215","NORAD_CAT_ID":"46562","TIME_SYSTEM":"UTC","MEAN_MOTION_DDOT":"0.0000000000000","OBJECT_TYPE":"PAYLOAD","CENTER_NAME":"EARTH","MEAN_MOTION_DOT":"0.00000694","REV_AT_EPOCH":"5421","MEAN_ELEMENT_THEORY":"SGP4","OBJECT_NAME":"STARLINK-1714","TLE_LINE1":"1 46562U 20070AG  21265.41564303  .00000694  00000-0  65460-4 0  9998","REF_FRAME":"TEME","SITE":"AFETR","ARG_OF_PERICENTER":"58.9609","INCLINATION":"53.0542","PERIOD":"95.592","EPHEMERIS_TYPE":"0","MEAN_ANOMALY":"301.1462","APOAPSIS":"547.768","RCS_SIZE":"LARGE","SEMIMAJOR_AXIS":"6925.321","ELEMENT_SET_NO":"999","ECCENTRICITY":"0.00008400","GP_ID":"185238317","LAUNCH_DATE":"2020-10-06","CLASSIFICATION_TYPE":"U","BSTAR":"0.00006546000000","PERIAPSIS":"546.605","EPOCH":"2021-09-22T09:58:31.557792","DECAY_DATE":null,"COUNTRY_CODE":"US","MEAN_MOTION":"15.06408878","FILE":"3123417","RA_OF_ASC_NODE":"270.7181"},{"MEAN_MOTION_DDOT":"0.0000000000000","TIME_SYSTEM":"UTC","OBJECT_TYPE":"PAYLOAD","OBJECT_ID":"2020-070AH","NORAD_CAT_ID":"46563","TLE_LINE2":"2 46563  53.0528 269.3045 0000596  54.8523 305.2522 15.06398085 54266","SITE":"AFETR","REF_FRAME":"TEME","TLE_LINE1":"1 46563U 20070AH  21265.72896292  .00000807  00000-0  73047-4 0  9994","INCLINATION":"53.0528","ARG_OF_PERICENTER":"54.8523","REV_AT_EPOCH":"5426","MEAN_MOTION_DOT":"0.00000807","CENTER_NAME":"EARTH","OBJECT_NAME":"STARLINK-1730","MEAN_ELEMENT_THEORY":"SGP4","SEMIMAJOR_AXIS":"6925.354","ECCENTRICITY":"0.00005960","GP_ID":"185269241","ELEMENT_SET_NO":"999","MEAN_ANOMALY":"305.2522","EPHEMERIS_TYPE":"0","PERIOD":"95.592","APOAPSIS":"547.632","RCS_SIZE":"LARGE","RA_OF_ASC_NODE":"269.3045","FILE":"3123736","BSTAR":"0.00007304700000","CLASSIFICATION_TYPE":"U","LAUNCH_DATE":"2020-10-06","COUNTRY_CODE":"US","DECAY_DATE":null,"MEAN_MOTION":"15.06398085","EPOCH":"2021-09-22T17:29:42.396288","PERIAPSIS":"546.807"},{"FILE":"3123736","RA_OF_ASC_NODE":"269.3962","EPOCH":"2021-09-22T17:03:10.097856","PERIAPSIS":"546.581","DECAY_DATE":null,"MEAN_MOTION":"15.06396489","COUNTRY_CODE":"US","LAUNCH_DATE":"2020-10-06","BSTAR":"-0.00000706250000","CLASSIFICATION_TYPE":"U","ELEMENT_SET_NO":"999","ECCENTRICITY":"0.00009290","GP_ID":"185267513","SEMIMAJOR_AXIS":"6925.359","APOAPSIS":"547.868","RCS_SIZE":"LARGE","PERIOD":"95.592","MEAN_ANOMALY":"297.6666","EPHEMERIS_TYPE":"0","INCLINATION":"53.0544","ARG_OF_PERICENTER":"62.4417","REF_FRAME":"TEME","SITE":"AFETR","TLE_LINE1":"1 46564U 20070AJ  21265.71053354 -.00000386  00000-0 -70625-5 0  9992","OBJECT_NAME":"STARLINK-1733","MEAN_ELEMENT_THEORY":"SGP4","REV_AT_EPOCH":"5426","MEAN_MOTION_DOT":"-0.00000386","CENTER_NAME":"EARTH","OBJECT_TYPE":"PAYLOAD","TIME_SYSTEM":"UTC","MEAN_MOTION_DDOT":"0.0000000000000","NORAD_CAT_ID":"46564","TLE_LINE2":"2 46564  53.0544 269.3962 0000929  62.4417 297.6666 15.06396489 54269","OBJECT_ID":"2020-070AJ"}];
